ONEWEB-0509             
1 54127U 22138Q   24007.86552387  .00000032  00000+0  47317-4 0  9992
2 54127  87.9203 122.3931 0001712 112.9875 247.1438 13.19727381 59246
ONEWEB-0510             
1 54128U 22138R   24007.77708181 -.00000023  00000+0 -88390-4 0  9996
2 54128  87.9237  91.8690 0002251 103.7387 256.3997 13.20769529 61619
ONEWEB-0511             
1 54129U 22138S   24007.86236293 -.00000018  00000+0 -78119-4 0  9999
2 54129  87.9206 122.3957 0001296 116.2921 243.8345 13.19725851 59278
ONEWEB-0512             
1 54130U 22138T   24007.85446551 -.00000018  00000+0 -77014-4 0  9993
2 54130  87.9216 122.4006 0001847 123.8110 236.3198 13.19727176 59245
ONEWEB-0513             
1 54131U 22138U   24007.82524668 -.00000098  00000+0 -27620-3 0  9992
2 54131  87.9209 122.4048 0001699 132.0970 228.0307 13.19723540 59123
ONEWEB-0514             
1 54132U 22138V   24007.79444700  .00000027  00000+0  35682-4 0  9995
2 54132  87.9206 122.4128 0001591 105.2907 254.8402 13.19724828 59250
ONEWEB-0515             
1 54133U 22138W   24007.76445840 -.00000055  00000+0 -16798-3 0  9998
2 54133  87.9197  91.8561 0002512  79.9986 280.1430 13.20768957 61639
ONEWEB-0516             
1 54134U 22138X   24007.84499073 -.00000064  00000+0 -19312-3 0  9990
2 54134  87.9214 122.4028 0001825 108.5419 251.5912 13.19726401 59264
